STARLINK-36154          
1 66939U 25286Q   26068.08053053  .00048966  00000+0  16559-2 0  9992
2 66939  53.1618   1.2703 0001295  54.3015 305.8106 15.30172711 15329
2025-313BD              
1 67299U 25313BD  26068.62968741  .00081010  00000+0  27634-2 0  9995
2 67299  97.3970 145.2850 0007287 333.4514  26.6352 15.30002360 10838
